{
    "links": {
        "self": "http://www.neowsapp.com/rest/v1/neo/3555675?api_key=iIulBulltgU6a56xZRHN4H3l9WmuAYTsLGpBGhQ2"
    },
    "id": "3555675",
    "neo_reference_id": "3555675",
    "name": "(2011 BV11)",
    "designation": "2011 BV11",
    "nasa_jpl_url": "http://ssd.jpl.nasa.gov/sbdb.cgi?sstr=3555675",
    "absolute_magnitude_h": 23.5,
    "estimated_diameter": {
        "kilometers": {
            "estimated_diameter_min": 0.0530340723,
            "estimated_diameter_max": 0.1185877909
        },
        "meters": {
            "estimated_diameter_min": 53.0340723319,
            "estimated_diameter_max": 118.5877908577
        },
        "miles": {
            "estimated_diameter_min": 0.0329538346,
            "estimated_diameter_max": 0.0736870142
        },
        "feet": {
            "estimated_diameter_min": 173.9963058693,
            "estimated_diameter_max": 389.0675677576
        }
    },
    "is_potentially_hazardous_asteroid": false,
    "close_approach_data": [
        {
            "close_approach_date": "1921-07-01",
            "close_approach_date_full": "1921-Jul-01 22:58",
            "epoch_date_close_approach": -1530579720000,
            "relative_velocity": {
                "kilometers_per_second": "19.1376381174",
                "kilometers_per_hour": "68895.4972226353",
                "miles_per_hour": "42808.9827048092"
            },
            "miss_distance": {
                "astronomical": "0.0688865084",
                "lunar": "26.7968517676",
                "kilometers": "10305274.928377108",
                "miles": "6403400.9108477704"
            },
            "orbiting_body": "Mars"
        },
        {
            "close_approach_date": "2011-02-10",
            "close_approach_date_full": "2011-Feb-10 02:10",
            "epoch_date_close_approach": 1297303800000,
            "relative_velocity": {
                "kilometers_per_second": "17.2529047683",
                "kilometers_per_hour": "62110.4571660478",
                "miles_per_hour": "38593.0226763145"
            },
            "miss_distance": {
                "astronomical": "0.0794546576",
                "lunar": "30.9078618064",
                "kilometers": "11886247.538539312",
                "miles": "7385771.7376620256"
            },
            "orbiting_body": "Earth"
        },
        {
            "close_approach_date": "2050-06-01",
            "close_approach_date_full": "2050-Jun-01 19:31",
            "epoch_date_close_approach": 2537724660000,
            "relative_velocity": {
                "kilometers_per_second": "18.5018224289",
                "kilometers_per_hour": "66606.5607442117",
                "miles_per_hour": "41386.7265913131"
            },
            "miss_distance": {
                "astronomical": "0.1151190664",
                "lunar": "44.7813168296",
                "kilometers": "17221567.129828568",
                "miles": "10700985.6031795184"
            },
            "orbiting_body": "Venus"
        },
        {
            "close_approach_date": "2050-08-09",
            "close_approach_date_full": "2050-Aug-09 13:02",
            "epoch_date_close_approach": 2543662920000,
            "relative_velocity": {
                "kilometers_per_second": "28.0123502142",
                "kilometers_per_hour": "100844.4607711931",
                "miles_per_hour": "62660.8261941894"
            },
            "miss_distance": {
                "astronomical": "0.2902650342",
                "lunar": "112.9130983038",
                "kilometers": "43423030.851797154",
                "miles": "26981820.2076785652"
            },
            "orbiting_body": "Earth"
        }
    ],
    "orbital_data": {
        "orbit_id": "11",
        "orbit_determination_date": "2017-04-06 08:54:52",
        "first_observation_date": "2011-01-25",
        "last_observation_date": "2011-02-08",
        "data_arc_in_days": 14,
        "observations_used": 28,
        "orbit_uncertainty": "9",
        "minimum_orbit_intersection": ".00847015",
        "jupiter_tisserand_invariant": "3.531",
        "epoch_osculation": "2455589.5",
        "eccentricity": ".6725357307238401",
        "semi_major_axis": "1.984095184126663",
        "inclination": "6.331917064519566",
        "ascending_node_longitude": "311.0577526364361",
        "orbital_period": "1020.803572625933",
        "perihelion_distance": ".6497202796443856",
        "perihelion_argument": "265.8037851347401",
        "aphelion_distance": "3.31847008860894",
        "perihelion_time": "2455647.338176783140",
        "mean_anomaly": "339.6025952491838",
        "mean_motion": ".352663342540945",
        "equinox": "J2000",
        "orbit_class": {
            "orbit_class_type": "APO",
            "orbit_class_description": "Near-Earth asteroid orbits which cross the Earth’s orbit similar to that of 1862 Apollo",
            "orbit_class_range": "a (semi-major axis) > 1.0 AU; q (perihelion) < 1.017 AU"
        }
    },
    "is_sentry_object": false
}